{
"type": "FeatureCollection",
"name": "京町家保全継承地区",
"crs": { "type": "name", "properties": { "name": "urn:ogc:def:crs:EPSG::6674" } },
"features": [
{ "type": "Feature", "properties": { "id": 69.0, "地区名": "祇園縄手・新門前" }, "geometry": { "type": "MultiPolygon", "coordinates": [ [ [ [ -20737.038099999539554, -110157.003699999302626 ], [ -20732.94469999987632, -110157.325200000777841 ], [ -20726.714200000278652, -110157.89130000025034 ], [ -20697.818199999630451, -110160.780999999493361 ], [ -20673.372999999672174, -110163.234400000423193 ], [ -20646.419900000095367, -110165.9375 ], [ -20606.824199999682605, -110169.9375 ], [ -20596.221199999563396, -110171.013399999588728 ], [ -20591.99890000000596, -110171.441600000485778 ], [ -20589.929700000211596, -110171.656300000846386 ], [ -20587.336500000208616, -110171.977299999445677 ], [ -20587.625199999660254, -110174.880100000649691 ], [ -20569.279600000008941, -110176.652400000020862 ], [ -20551.200899999588728, -110178.389299999922514 ], [ -20514.828999999910593, -110181.390100000426173 ], [ -20514.839800000190735, -110181.398399999365211 ], [ -20515.628899999894202, -110188.962400000542402 ], [ -20516.761699999682605, -110201.117200000211596 ], [ -20518.060800000093877, -110214.868599999696016 ], [ -20518.634800000116229, -110220.343699999153614 ], [ -20519.318799999542534, -110230.839700000360608 ], [ -20519.210799999535084, -110250.355699999257922 ], [ -20519.476599999703467, -110250.328099999576807 ], [ -20547.208200000226498, -110247.744100000709295 ], [ -20560.090800000354648, -110246.516699999570847 ], [ -20599.821000000461936, -110242.805400000885129 ], [ -20626.087899999693036, -110240.228700000792742 ], [ -20659.259800000116229, -110237.077600000426173 ], [ -20710.482599999755621, -110231.881899999454618 ], [ -20704.375199999660254, -110328.080700000748038 ], [ -20721.773299999535084, -110331.470799999311566 ], [ -20723.601300000213087, -110310.490900000557303 ], [ -20727.058600000105798, -110260.523399999365211 ], [ -20728.564500000327826, -110229.875 ], [ -20735.660199999809265, -110228.101600000634789 ], [ -20756.574199999682605, -110228.281300000846386 ], [ -20759.747999999672174, -110158.3125 ], [ -20737.038099999539554, -110157.003699999302626 ] ] ] ] } },
{ "type": "Feature", "properties": { "id": 3.0, "地区名": "膏薬図子" }, "geometry": { "type": "MultiPolygon", "coordinates": [ [ [ [ -22281.182300000451505, -110512.193600000813603 ], [ -22267.424300000071526, -110512.025299999862909 ], [ -22267.579599999822676, -110524.243200000375509 ], [ -22261.141400000080466, -110524.259600000455976 ], [ -22260.876799999736249, -110536.033600000664592 ], [ -22248.256299999542534, -110535.994999999180436 ], [ -22248.489299999549985, -110545.779699999839067 ], [ -22247.402099999599159, -110545.779699999839067 ], [ -22247.402099999599159, -110561.000199999660254 ], [ -22248.702800000086427, -110560.941899999976158 ], [ -22248.702800000086427, -110561.271999999880791 ], [ -22250.838399999774992, -110561.310799999162555 ], [ -22250.974299999885261, -110567.445599999278784 ], [ -22250.042399999685585, -110567.367900000885129 ], [ -22250.042399999685585, -110571.48369999974966 ], [ -22264.331000000238419, -110571.988500000908971 ], [ -22264.79700000025332, -110580.37529999949038 ], [ -22265.651200000196695, -110586.820699999108911 ], [ -22274.814600000157952, -110586.898299999535084 ], [ -22274.892199999652803, -110592.33420000039041 ], [ -22274.899699999950826, -110598.475299999117851 ], [ -22279.939799999818206, -110598.391400000080466 ], [ -22280.405799999833107, -110633.336400000378489 ], [ -22313.176500000059605, -110633.103499999269843 ], [ -22312.47759999986738, -110611.86460000090301 ], [ -22313.603600000031292, -110611.825799999758601 ], [ -22313.564699999988079, -110610.46680000051856 ], [ -22319.085099999792874, -110610.38150000013411 ], [ -22319.085099999792874, -110606.148199999704957 ], [ -22321.334099999628961, -110606.148199999704957 ], [ -22321.330299999564886, -110600.837500000372529 ], [ -22320.398400000296533, -110600.79869999922812 ], [ -22320.514899999834597, -110593.73200000077486 ], [ -22321.87390000000596, -110593.654400000348687 ], [ -22321.71860000025481, -110584.762800000607967 ], [ -22317.913499999791384, -110584.840500000864267 ], [ -22317.758100000210106, -110573.425100000575185 ], [ -22306.886300000362098, -110573.347400000318885 ], [ -22306.342799999751151, -110566.902000000700355 ], [ -22292.947200000286102, -110566.940799999982119 ], [ -22292.442400000058115, -110553.816999999806285 ], [ -22308.219399999827147, -110554.011199999600649 ], [ -22308.322999999858439, -110541.896900000050664 ], [ -22309.668999999761581, -110541.793299999088049 ], [ -22309.668999999761581, -110536.719799999147654 ], [ -22309.47759999986738, -110534.067600000649691 ], [ -22310.184000000357628, -110533.949899999424815 ], [ -22309.830799999646842, -110525.356100000441074 ], [ -22320.072700000368059, -110525.356100000441074 ], [ -22320.072700000368059, -110512.524299999698997 ], [ -22298.383100000210106, -110512.49129999987781 ], [ -22281.182300000451505, -110512.193600000813603 ] ] ] ] } },
{ "type": "Feature", "properties": { "id": 1.0, "地区名": "万寿寺通" }, "geometry": { "type": "MultiPolygon", "coordinates": [ [ [ [ -21794.331199999898672, -111166.945900000631809 ], [ -21794.411500000394881, -111150.860799999907613 ], [ -21787.063299999572337, -111150.878399999812245 ], [ -21787.176500000059605, -111144.788100000470877 ], [ -21779.463499999605119, -111144.92850000038743 ], [ -21779.596699999645352, -111151.018300000578165 ], [ -21768.99210000038147, -111150.980900000780821 ], [ -21768.949500000104308, -111149.457399999722838 ], [ -21729.031200000084937, -111149.186499999836087 ], [ -21729.167600000277162, -111137.770999999716878 ], [ -21704.175900000147521, -111137.900900000706315 ], [ -21704.240799999795854, -111149.390599999576807 ], [ -21689.310700000263751, -111149.45549999922514 ], [ -21689.245799999684095, -111142.055299999192357 ], [ -21680.871899999678135, -111142.055299999192357 ], [ -21680.93680000025779, -111148.936200000345707 ], [ -21658.031999999657273, -111149.23340000025928 ], [ -21651.07660000026226, -111149.0011 ], [ -21650.903099999763072, -111137.802300000563264 ], [ -21627.383100000210106, -111137.998199999332428 ], [ -21627.350700000301003, -111137.38150000013411 ], [ -21620.697100000455976, -111137.414000000804663 ], [ -21620.437400000169873, -111146.826500000432134 ], [ -21620.315700000151992, -111150.897099999710917 ], [ -21601.36089999973774, -111151.416400000452995 ], [ -21601.287899999879301, -111156.238900000229478 ], [ -21582.275200000032783, -111156.235200000926852 ], [ -21582.268199999816716, -111151.759899999946356 ], [ -21577.362700000405312, -111151.743100000545382 ], [ -21577.237399999983609, -111140.010500000789762 ], [ -21563.670500000007451, -111140.270199999213219 ], [ -21564.02309999987483, -111154.215099999681115 ], [ -21543.338700000196695, -111154.264000000432134 ], [ -21524.242200000211596, -111154.187100000679493 ], [ -21523.981999999843538, -111148.330600000917912 ], [ -21507.578900000080466, -111148.49129999987781 ], [ -21507.692400000058115, -111146.305700000375509 ], [ -21497.897900000214577, -111146.32880000025034 ], [ -21497.928100000135601, -111159.119000000879169 ], [ -21476.75040000025183, -111159.046900000423193 ], [ -21469.776800000108778, -111159.185300000011921 ], [ -21469.954300000332296, -111150.226299999281764 ], [ -21460.393000000156462, -111150.104599999263883 ], [ -21460.457899999804795, -111147.767699999734759 ], [ -21450.720900000073016, -111147.962500000372529 ], [ -21450.785799999721348, -111140.692099999636412 ], [ -21441.088999999687076, -111140.727399999275804 ], [ -21441.102800000458956, -111146.584499999880791 ], [ -21425.183500000275671, -111146.744000000879169 ], [ -21425.223600000143051, -111163.804999999701977 ], [ -21409.560200000181794, -111164.085799999535084 ], [ -21404.174599999561906, -111164.098500000312924 ], [ -21403.910400000400841, -111156.533600000664592 ], [ -21386.649299999698997, -111156.696100000292063 ], [ -21386.507799999788404, -111150.850400000810623 ], [ -21373.902700000442564, -111151.246099999174476 ], [ -21373.909199999645352, -111154.052600000053644 ], [ -21344.899600000120699, -111153.998500000685453 ], [ -21339.134499999694526, -111155.297700000926852 ], [ -21324.853500000201166, -111155.297700000926852 ], [ -21324.853500000201166, -111148.287000000476837 ], [ -21311.706199999898672, -111148.707100000232458 ], [ -21311.851099999621511, -111156.028200000524521 ], [ -21293.922199999913573, -111155.816999999806285 ], [ -21294.052000000141561, -111166.852299999445677 ], [ -21274.837600000202656, -111166.462799999862909 ], [ -21273.214800000190735, -111171.623400000855327 ], [ -21275.778900000266731, -111178.504300000146031 ], [ -21308.008500000461936, -111178.861300000920892 ], [ -21307.99100000038743, -111183.880699999630451 ], [ -21307.999400000087917, -111187.474899999797344 ], [ -21321.056099999696016, -111187.007999999448657 ], [ -21320.926300000399351, -111182.853499999269843 ], [ -21344.489900000393391, -111182.658700000494719 ], [ -21344.554800000041723, -111184.151799999177456 ], [ -21356.693599999882281, -111184.184200000017881 ], [ -21356.741799999959767, -111194.183100000023842 ], [ -21364.335900000296533, -111193.92119999974966 ], [ -21364.126199999824166, -111184.476299999281764 ], [ -21369.351800000295043, -111184.346499999985099 ], [ -21369.319299999624491, -111187.2027000002563 ], [ -21374.747700000181794, -111187.194599999114871 ], [ -21374.739599999971688, -111189.255599999800324 ], [ -21380.974899999797344, -111189.256400000303984 ], [ -21380.71100000012666, -111181.824699999764562 ], [ -21410.697100000455976, -111181.754399999976158 ], [ -21410.847799999639392, -111184.557499999180436 ], [ -21432.593799999915063, -111184.817099999636412 ], [ -21432.658699999563396, -111187.673299999907613 ], [ -21443.1097999997437, -111187.543500000610948 ], [ -21443.07730000000447, -111190.010199999436736 ], [ -21447.686200000345707, -111190.075099999085069 ], [ -21447.621299999766052, -111186.667199999094009 ], [ -21453.463499999605119, -111186.56980000063777 ], [ -21453.431900000199676, -111184.083300000056624 ], [ -21470.200699999928474, -111184.16579999960959 ], [ -21470.418200000189245, -111171.863199999555945 ], [ -21479.753499999642372, -111174.82039999961853 ], [ -21534.280899999663234, -111174.43099999986589 ], [ -21543.132500000298023, -111171.325600000098348 ], [ -21542.9222999997437, -111186.67879999987781 ], [ -21564.944199999794364, -111186.860600000247359 ], [ -21564.920099999755621, -111192.412000000476837 ], [ -21579.786700000055134, -111192.437699999660254 ], [ -21579.779000000096858, -111189.154200000688434 ], [ -21587.380199999548495, -111189.101399999111891 ], [ -21587.250300000421703, -111181.11710000038147 ], [ -21624.83530000038445, -111181.246899999678135 ], [ -21624.965099999681115, -111199.552500000223517 ], [ -21649.697200000286102, -111199.487600000575185 ], [ -21649.68709999974817, -111190.807700000703335 ], [ -21657.76549999974668, -111190.788599999621511 ], [ -21657.614900000393391, -111181.171299999579787 ], [ -21666.67949999962002, -111181.27170000039041 ], [ -21670.664300000295043, -111181.246899999678135 ], [ -21670.664300000295043, -111189.036499999463558 ], [ -21685.594399999827147, -111188.971599999815226 ], [ -21685.659300000406802, -111194.229599999263883 ], [ -21691.890999999828637, -111194.29450000077486 ], [ -21691.895100000314415, -111199.2807 ], [ -21710.882299999706447, -111199.410499999299645 ], [ -21710.886300000362098, -111198.554500000551343 ], [ -21715.880599999800324, -111198.566600000485778 ], [ -21715.94550000037998, -111190.127900000661612 ], [ -21739.963499999605119, -111190.062999999150634 ], [ -21740.028500000014901, -111197.203400000929832 ], [ -21766.123700000345707, -111197.138499999418855 ], [ -21765.993900000117719, -111202.526399999856949 ], [ -21774.46169999986887, -111202.457900000736117 ], [ -21775.684899999760091, -111202.454900000244379 ], [ -21775.730899999849498, -111201.228099999949336 ], [ -21779.366100000217557, -111201.357899999246001 ], [ -21779.209599999710917, -111191.47550000064075 ], [ -21789.735000000335276, -111191.694399999454618 ], [ -21789.723899999633431, -111187.068600000813603 ], [ -21794.991200000047684, -111187.178099999204278 ], [ -21794.331199999898672, -111166.945900000631809 ] ] ] ] } },
{ "type": "Feature", "properties": { "id": 68.0, "地区名": "先斗町" }, "geometry": { "type": "MultiPolygon", "coordinates": [ [ [ [ -20866.775399999693036, -109962.421900000423193 ], [ -20865.613300000317395, -109990.718800000846386 ], [ -20865.175800000317395, -110012.125 ], [ -20865.613300000317395, -110033.539100000634789 ], [ -20867.423799999989569, -110081.343699999153614 ], [ -20867.673799999989569, -110115.343699999153614 ], [ -20868.673799999989569, -110156.351600000634789 ], [ -20868.923799999989569, -110197.351600000634789 ], [ -20869.673799999989569, -110231.101600000634789 ], [ -20869.673799999989569, -110259.851600000634789 ], [ -20870.923799999989569, -110289.351600000634789 ], [ -20872.173799999989569, -110318.601600000634789 ], [ -20872.173799999989569, -110333.351600000634789 ], [ -20874.173799999989569, -110340.851600000634789 ], [ -20876.976599999703467, -110359.507799999788404 ], [ -20880.035199999809265, -110387.476600000634789 ], [ -20881.345700000412762, -110413.257799999788404 ], [ -20882.656200000084937, -110438.164100000634789 ], [ -20884.841799999587238, -110462.632799999788404 ], [ -20886.589800000190735, -110480.109400000423193 ], [ -20919.857400000095367, -110480.523399999365211 ], [ -20921.792999999597669, -110480.593699999153614 ], [ -20921.244099999777973, -110477.273399999365211 ], [ -20918.642599999904633, -110459.234400000423193 ], [ -20916.775399999693036, -110450.648399999365211 ], [ -20915.527300000190735, -110442.843699999153614 ], [ -20915.431599999777973, -110434.953099999576807 ], [ -20913.939500000327826, -110419.648399999365211 ], [ -20913.927699999883771, -110403.265599999576807 ], [ -20913.550800000317395, -110392.320299999788404 ], [ -20914.732400000095367, -110338.6875 ], [ -20914.337899999693036, -110294.570299999788404 ], [ -20915.525399999693036, -110245.460899999365211 ], [ -20916.318400000222027, -110184.343800000846386 ], [ -20917.111299999989569, -110122.132799999788404 ], [ -20919.490199999883771, -110017.054700000211596 ], [ -20919.890599999576807, -109990.3125 ], [ -20920.281200000084937, -109962.734400000423193 ], [ -20900.267599999904633, -109962.609400000423193 ], [ -20866.775399999693036, -109962.421900000423193 ] ] ] ] } },
{ "type": "Feature", "properties": { "id": 324.0, "地区名": "祇園新橋" }, "geometry": { "type": "MultiPolygon", "coordinates": [ [ [ [ -20574.089800000190735, -110341.492200000211596 ], [ -20593.497999999672174, -110340.742200000211596 ], [ -20592.435499999672174, -110320.804700000211596 ], [ -20592.115199999883771, -110309.273399999365211 ], [ -20700.488300000317395, -110333.671900000423193 ], [ -20701.202100000344217, -110327.58530000038445 ], [ -20704.375199999660254, -110328.080700000748038 ], [ -20710.482599999755621, -110231.881899999454618 ], [ -20659.259800000116229, -110237.077600000426173 ], [ -20626.087899999693036, -110240.228700000792742 ], [ -20599.821000000461936, -110242.805400000885129 ], [ -20547.208200000226498, -110247.744100000709295 ], [ -20551.695299999788404, -110325.0625 ], [ -20573.341799999587238, -110322.828099999576807 ], [ -20574.089800000190735, -110341.492200000211596 ] ] ] ] } },
{ "type": "Feature", "properties": { "id": 864.0, "地区名": "姉小路界わい" }, "geometry": { "type": "MultiPolygon", "coordinates": [ [ [ [ -21907.813900000415742, -109796.841499999165535 ], [ -21907.463100000284612, -109768.892100000753999 ], [ -21900.257299999706447, -109769.079299999400973 ], [ -21286.481300000101328, -109768.863500000908971 ], [ -21287.189399999566376, -109813.235999999567866 ], [ -21275.838200000114739, -109813.296399999409914 ], [ -21276.019299999810755, -109821.50789999961853 ], [ -21270.221499999985099, -109821.779500000178814 ], [ -21270.283999999985099, -109827.97749999910593 ], [ -21287.551099999807775, -109827.79619999974966 ], [ -21288.333800000138581, -109910.754499999806285 ], [ -21307.597699999809265, -109911.037100000306964 ], [ -21307.915699999779463, -109930.189300000667572 ], [ -21316.203200000338256, -109930.190199999138713 ], [ -21316.225700000301003, -109923.125600000843406 ], [ -21324.503600000403821, -109923.125600000843406 ], [ -21324.503600000403821, -109911.351700000464916 ], [ -21374.316200000233948, -109911.351700000464916 ], [ -21374.436900000087917, -109923.186000000685453 ], [ -21382.527700000442564, -109923.246400000527501 ], [ -21382.571999999694526, -109935.774900000542402 ], [ -21391.289300000295043, -109935.774900000542402 ], [ -21390.856999999843538, -109910.703199999406934 ], [ -21441.472299999557436, -109911.173499999567866 ], [ -21441.636900000274181, -109924.026599999517202 ], [ -21449.789800000376999, -109924.152000000700355 ], [ -21449.725599999539554, -109931.153699999675155 ], [ -21458.26630000025034, -109931.033500000834465 ], [ -21457.880599999800324, -109912.136600000783801 ], [ -21477.201799999922514, -109912.197000000625849 ], [ -21477.691200000233948, -109933.845599999651313 ], [ -21489.682500000111759, -109934.113099999725819 ], [ -21489.372800000011921, -109914.056600000709295 ], [ -21531.03110000025481, -109914.405099999159575 ], [ -21530.868700000457466, -109927.394500000402331 ], [ -21547.519399999640882, -109927.568900000303984 ], [ -21547.693699999712408, -109912.923299999907613 ], [ -21600.435399999842048, -109913.271999999880791 ], [ -21600.082999999634922, -109932.074400000274181 ], [ -21616.822200000286102, -109932.198599999770522 ], [ -21617.347599999979138, -109913.359099999070168 ], [ -21665.294499999843538, -109913.707800000905991 ], [ -21665.296099999919534, -109915.200500000268221 ], [ -21673.323400000110269, -109915.363199999555945 ], [ -21674.490699999965727, -109823.79079999960959 ], [ -21709.667299999855459, -109822.08559999987483 ], [ -21709.057000000029802, -109880.755200000479817 ], [ -21783.099000000394881, -109878.537799999117851 ], [ -21782.695899999700487, -109849.957200000062585 ], [ -21810.064199999906123, -109849.0921 ], [ -21810.064199999906123, -109857.17369999922812 ], [ -21850.869500000029802, -109856.213199999183416 ], [ -21850.716500000096858, -109817.144600000232458 ], [ -21896.47690000012517, -109816.205900000408292 ], [ -21896.320000000298023, -109797.039499999955297 ], [ -21907.813900000415742, -109796.841499999165535 ] ] ] ] } },
{ "type": "Feature", "properties": { "id": 78.0, "地区名": "祇園町南" }, "geometry": { "type": "MultiPolygon", "coordinates": [ [ [ [ -20970.117200000211596, -110985.476600000634789 ], [ -20946.076200000010431, -110994.164100000634789 ], [ -20899.855499999597669, -110844.617200000211596 ], [ -20893.747999999672174, -110846.398399999365211 ], [ -20886.177699999883771, -110848.617200000211596 ], [ -20882.677699999883771, -110846.867200000211596 ], [ -20869.644500000402331, -110850.976600000634789 ], [ -20887.677699999883771, -110912.367200000211596 ], [ -20852.427699999883771, -110922.117200000211596 ], [ -20866.484400000423193, -111000.0 ], [ -20867.677699999883771, -111006.617200000211596 ], [ -20861.427699999883771, -111009.867200000211596 ], [ -20850.220700000412762, -111013.664100000634789 ], [ -20856.921900000423193, -111034.992200000211596 ], [ -20857.007799999788404, -111035.257799999788404 ], [ -20873.361299999989569, -111032.468699999153614 ], [ -20873.558600000105798, -111032.4375 ], [ -20885.677699999883771, -111030.367200000211596 ], [ -20887.488300000317395, -111037.835899999365211 ], [ -20887.611299999989569, -111038.343699999153614 ], [ -20922.089800000190735, -111030.984400000423193 ], [ -20922.099600000306964, -111031.015599999576807 ], [ -20922.115199999883771, -111031.0625 ], [ -20927.718700000084937, -111048.25 ], [ -20928.0, -111050.531199999153614 ], [ -20929.625, -111063.742200000211596 ], [ -20931.271499999798834, -111077.117200000211596 ], [ -20932.927699999883771, -111110.109400000423193 ], [ -20936.177699999883771, -111127.367200000211596 ], [ -20950.515599999576807, -111123.546900000423193 ], [ -20960.359400000423193, -111163.851600000634789 ], [ -20960.710900000296533, -111163.773399999365211 ], [ -20979.425800000317395, -111159.617200000211596 ], [ -20974.158200000412762, -111137.414100000634789 ], [ -20994.8125, -111130.414100000634789 ], [ -20995.673799999989569, -111130.109400000423193 ], [ -20993.599600000306964, -111124.375 ], [ -20998.109400000423193, -111122.539100000634789 ], [ -21010.175800000317395, -111118.367200000211596 ], [ -20991.730499999597669, -111067.796900000423193 ], [ -20999.986299999989569, -111064.773399999365211 ], [ -20995.175800000317395, -111053.609400000423193 ], [ -20987.675800000317395, -111039.609400000423193 ], [ -20984.859400000423193, -111028.593699999153614 ], [ -20980.470700000412762, -111014.632799999788404 ], [ -20975.361299999989569, -111000.0 ], [ -20971.697300000116229, -110989.507799999788404 ], [ -20970.117200000211596, -110985.476600000634789 ] ] ], [ [ [ -20793.304700000211596, -111006.9375 ], [ -20760.681599999777973, -111014.367200000211596 ], [ -20720.627000000327826, -111021.476600000634789 ], [ -20680.611299999989569, -111028.226600000634789 ], [ -20678.058600000105798, -111014.046900000423193 ], [ -20643.625, -111019.601600000634789 ], [ -20377.939500000327826, -111037.632799999788404 ], [ -20378.462899999693036, -111044.0625 ], [ -20378.466799999587238, -111044.093699999153614 ], [ -20369.119099999777973, -111044.843800000846386 ], [ -20356.189500000327826, -111045.882799999788404 ], [ -20356.691399999894202, -111054.632799999788404 ], [ -20370.619099999777973, -111053.523399999365211 ], [ -20375.5, -111053.140599999576807 ], [ -20379.535199999809265, -111052.820299999788404 ], [ -20380.363300000317395, -111058.765599999576807 ], [ -20396.343700000084937, -111057.6875 ], [ -20397.130900000222027, -111073.429700000211596 ], [ -20500.787100000306964, -111066.0 ], [ -20501.853500000201166, -111058.5625 ], [ -20554.685499999672174, -111060.625 ], [ -20557.851599999703467, -111061.851600000634789 ], [ -20634.560499999672174, -111056.320299999788404 ], [ -20648.951200000010431, -111055.609400000423193 ], [ -20729.796900000423193, -111044.718699999153614 ], [ -20796.929700000211596, -111034.867200000211596 ], [ -20806.238300000317395, -111033.671900000423193 ], [ -20802.091799999587238, -111005.648399999365211 ], [ -20793.304700000211596, -111006.9375 ] ] ], [ [ [ -20615.002000000327826, -110672.132799999788404 ], [ -20601.031200000084937, -110608.171900000423193 ], [ -20599.720700000412762, -110608.132799999788404 ], [ -20588.519500000402331, -110552.0 ], [ -20661.390599999576807, -110543.031199999153614 ], [ -20659.542999999597669, -110533.0625 ], [ -20658.927699999883771, -110529.75 ], [ -20599.822300000116229, -110532.890599999576807 ], [ -20599.533200000412762, -110522.210899999365211 ], [ -20595.824199999682605, -110522.281199999153614 ], [ -20538.207000000402331, -110523.375 ], [ -20538.244099999777973, -110501.226600000634789 ], [ -20521.869099999777973, -110501.328099999576807 ], [ -20498.183600000105798, -110501.468699999153614 ], [ -20499.267599999904633, -110524.859400000423193 ], [ -20446.427699999883771, -110528.656199999153614 ], [ -20452.572300000116229, -110578.921900000423193 ], [ -20450.314500000327826, -110581.796900000423193 ], [ -20439.900399999693036, -110583.632799999788404 ], [ -20436.099600000306964, -110584.8125 ], [ -20370.978500000201166, -110613.203099999576807 ], [ -20364.125, -110616.1875 ], [ -20361.771499999798834, -110615.75 ], [ -20363.953099999576807, -110636.531199999153614 ], [ -20364.015599999576807, -110636.859400000423193 ], [ -20367.185499999672174, -110653.375 ], [ -20369.185499999672174, -110660.125 ], [ -20371.896499999798834, -110688.742200000211596 ], [ -20383.935499999672174, -110727.125 ], [ -20390.1875, -110788.289100000634789 ], [ -20403.4375, -110823.125 ], [ -20419.435499999672174, -110822.875 ], [ -20420.835900000296533, -110829.554700000211596 ], [ -20442.497999999672174, -110829.804700000211596 ], [ -20442.283200000412762, -110838.585899999365211 ], [ -20567.984400000423193, -110836.734400000423193 ], [ -20566.607400000095367, -110824.953099999576807 ], [ -20575.683600000105798, -110824.625 ], [ -20576.013700000010431, -110820.625 ], [ -20584.933600000105798, -110820.375 ], [ -20574.933600000105798, -110757.375 ], [ -20577.933600000105798, -110753.875 ], [ -20577.949199999682605, -110753.679700000211596 ], [ -20629.214800000190735, -110745.132799999788404 ], [ -20615.002000000327826, -110672.132799999788404 ] ] ] ] } },
{ "type": "Feature", "properties": { "id": 737.0, "地区名": "職住共存" }, "geometry": { "type": "MultiPolygon", "coordinates": [ [ [ [ -22374.179999999701977, -109793.349999999627471 ], [ -22354.888000000268221, -109790.406999999657273 ], [ -22346.887000000104308, -109788.881999999284744 ], [ -22287.717000000178814, -109788.014000000432134 ], [ -22281.212000000290573, -109787.914000000804663 ], [ -22260.963000000454485, -109787.622999999672174 ], [ -22218.783999999985099, -109787.341000000014901 ], [ -22211.885999999940395, -109787.435000000521541 ], [ -22158.656999999657273, -109788.135999999940395 ], [ -22152.061999999918044, -109788.225999999791384 ], [ -22141.946000000461936, -109788.356000000610948 ], [ -22087.087000000290573, -109788.796000000089407 ], [ -22058.279000000096858, -109788.735999999567866 ], [ -22019.627000000327826, -109788.426000000908971 ], [ -22016.106999999843538, -109788.410000000149012 ], [ -22016.45339999999851, -109821.561599999666214 ], [ -22015.759600000455976, -109959.138399999588728 ], [ -22015.713999999687076, -109992.882999999448657 ], [ -22047.048000000417233, -109993.213999999687076 ], [ -22046.951000000350177, -110033.418999999761581 ], [ -22046.730999999679625, -110093.551999999210238 ], [ -22046.71100000012666, -110100.154999999329448 ], [ -22046.600999999791384, -110132.132999999448657 ], [ -22046.610999999567866, -110223.970000000670552 ], [ -22046.470999999903142, -110230.57799999974668 ], [ -22046.470999999903142, -110358.132999999448657 ], [ -22046.053999999538064, -110362.739000000059605 ], [ -22079.559200000017881, -110362.479499999433756 ], [ -22079.310999999754131, -110395.483999999240041 ], [ -22115.713000000454485, -110395.639000000432134 ], [ -22122.072999999858439, -110395.669999999925494 ], [ -22203.171000000089407, -110394.60700000077486 ], [ -22209.078999999910593, -110394.617000000551343 ], [ -22215.519999999552965, -110394.635999999940395 ], [ -22260.384999999776483, -110395.186000000685453 ], [ -22277.302000000141561, -110395.275000000372529 ], [ -22280.40500000026077, -110395.296000000089407 ], [ -22344.701999999582767, -110395.622999999672174 ], [ -22358.052000000141561, -110396.013000000268221 ], [ -22434.980000000447035, -110394.608999999240041 ], [ -22436.580000000074506, -110394.578999999910593 ], [ -22483.168999999761581, -110393.728000000119209 ], [ -22488.921000000089407, -110393.823000000789762 ], [ -22519.253999999724329, -110393.768999999389052 ], [ -22519.145999999716878, -110364.191999999806285 ], [ -22519.286999999545515, -110359.166999999433756 ], [ -22518.253999999724329, -110231.543999999761581 ], [ -22516.247000000439584, -110226.673000000417233 ], [ -22516.343999999575317, -110097.860999999567866 ], [ -22516.343999999575317, -110094.273000000044703 ], [ -22520.049999999813735, -109964.096000000834465 ], [ -22519.433000000193715, -109956.949999999254942 ], [ -22519.433000000193715, -109830.073000000789762 ], [ -22519.889999999664724, -109826.527000000700355 ], [ -22521.99100000038743, -109793.732999999076128 ], [ -22490.88300000037998, -109793.650000000372529 ], [ -22484.006000000052154, -109793.268999999389052 ], [ -22433.896999999880791, -109794.396999999880791 ], [ -22428.065999999642372, -109794.540999999269843 ], [ -22374.179999999701977, -109793.349999999627471 ] ] ], [ [ [ -22562.224999999627471, -110602.356000000610948 ], [ -22493.197999999858439, -110604.657999999821186 ], [ -22488.240000000223517, -110603.426999999210238 ], [ -22353.96100000012666, -110603.900000000372529 ], [ -22340.762000000104308, -110603.36600000038743 ], [ -22304.644999999552965, -110603.734999999403954 ], [ -22302.63399999961257, -110603.755000000819564 ], [ -22293.464999999850988, -110603.855000000447035 ], [ -22260.690000000409782, -110604.182000000029802 ], [ -22210.786999999545515, -110603.900000000372529 ], [ -22210.786999999545515, -110602.097999999299645 ], [ -22128.371000000275671, -110602.244000000879169 ], [ -22074.958999999798834, -110602.247999999672174 ], [ -22075.020999999716878, -110631.675000000745058 ], [ -22044.354000000283122, -110631.728000000119209 ], [ -22044.401999999769032, -110653.438999999314547 ], [ -22044.907999999821186, -110764.155999999493361 ], [ -22045.399000000208616, -110770.05599999986589 ], [ -22045.209999999962747, -110859.174000000581145 ], [ -22016.434000000357628, -110858.99100000038743 ], [ -22015.964300000108778, -110894.642799999564886 ], [ -22015.526999999769032, -110929.721000000834465 ], [ -22015.442200000397861, -110933.207800000905991 ], [ -22010.186300000175834, -110995.689500000327826 ], [ -22009.397300000302494, -111001.635700000450015 ], [ -22009.901200000196695, -111033.386499999091029 ], [ -22008.526200000196695, -111039.9057 ], [ -22011.401999999769032, -111169.226999999955297 ], [ -22012.401999999769032, -111174.226999999955297 ], [ -22012.326000000350177, -111204.278000000864267 ], [ -22015.610999999567866, -111204.095000000670552 ], [ -22073.701000000350177, -111203.606000000610948 ], [ -22080.075000000186265, -111203.850999999791384 ], [ -22110.651999999769032, -111203.849999999627471 ], [ -22123.424999999813735, -111203.849999999627471 ], [ -22140.173999999649823, -111204.381999999284744 ], [ -22144.106999999843538, -111204.119999999180436 ], [ -22206.358000000007451, -111205.334000000730157 ], [ -22211.572999999858439, -111205.595000000670552 ], [ -22260.495000000111759, -111205.847999999299645 ], [ -22272.292000000365078, -111205.907999999821186 ], [ -22277.400000000372529, -111205.898000000044703 ], [ -22341.796000000089407, -111205.776000000536442 ], [ -22352.862999999895692, -111205.549000000581145 ], [ -22417.351999999955297, -111205.865000000223517 ], [ -22422.292999999597669, -111205.894999999552965 ], [ -22480.160000000149012, -111206.176999999210238 ], [ -22485.708999999798834, -111205.945000000298023 ], [ -22567.091000000014901, -111206.073000000789762 ], [ -22569.442999999970198, -111206.07799999974668 ], [ -22569.490299999713898, -111174.064899999648333 ], [ -22569.700100000016391, -111096.762900000438094 ], [ -22570.216000000014901, -111037.965299999341369 ], [ -22570.988900000229478, -110995.636199999600649 ], [ -22569.198699999600649, -110926.796399999409914 ], [ -22568.425599999725819, -110868.509899999946356 ], [ -22568.682400000281632, -110784.731599999591708 ], [ -22568.309299999848008, -110709.584699999541044 ], [ -22567.236200000159442, -110672.946699999272823 ], [ -22566.593999999575317, -110653.328999999910593 ], [ -22566.082100000232458, -110633.709699999541044 ], [ -22565.24199999962002, -110602.192999999970198 ], [ -22562.224999999627471, -110602.356000000610948 ] ] ], [ [ [ -21806.92200000025332, -110602.316999999806285 ], [ -21723.439000000245869, -110601.028999999165535 ], [ -21721.440999999642372, -110600.989000000059605 ], [ -21672.923000000417233, -110600.235999999567866 ], [ -21607.57799999974668, -110600.145999999716878 ], [ -21603.178999999538064, -110600.145999999716878 ], [ -21546.184999999590218, -110600.07799999974668 ], [ -21541.765999999828637, -110599.841000000014901 ], [ -21510.273000000044703, -110599.695000000298023 ], [ -21498.951999999582767, -110600.154999999329448 ], [ -21464.00899999961257, -110600.576999999582767 ], [ -21459.559999999590218, -110600.537000000476837 ], [ -21398.945000000298023, -110601.38399999961257 ], [ -21394.589999999850988, -110601.445000000298023 ], [ -21335.11699999962002, -110602.609999999403954 ], [ -21329.018000000156462, -110602.783999999985099 ], [ -21325.018000000156462, -110602.893999999389052 ], [ -21311.902999999932945, -110603.267000000923872 ], [ -21311.890100000426173, -110635.251499999314547 ], [ -21311.890100000426173, -110653.35190000012517 ], [ -21313.164300000295043, -110760.003200000151992 ], [ -21312.913399999961257, -110766.092299999669194 ], [ -21312.415400000289083, -110796.752000000327826 ], [ -21312.167500000447035, -110821.008500000461936 ], [ -21312.167500000447035, -110833.478800000622869 ], [ -21312.666699999943376, -110892.353099999949336 ], [ -21312.154699999839067, -110906.007400000467896 ], [ -21310.662899999879301, -110955.739499999210238 ], [ -21310.416899999603629, -110976.118899999186397 ], [ -21310.167999999597669, -111023.268899999558926 ], [ -21308.88910000026226, -111030.179099999368191 ], [ -21303.389499999582767, -111155.173900000751019 ], [ -21302.773599999956787, -111169.357200000435114 ], [ -21338.917700000107288, -111169.737600000575185 ], [ -21341.512000000104308, -111169.747999999672174 ], [ -21342.298999999649823, -111200.986999999731779 ], [ -21362.184000000357628, -111200.862999999895692 ], [ -21404.946000000461936, -111200.097999999299645 ], [ -21410.154000000096858, -111202.082000000402331 ], [ -21459.861999999731779, -111201.156999999657273 ], [ -21460.165000000037253, -111202.369999999180436 ], [ -21468.745000000111759, -111202.190999999642372 ], [ -21477.576000000350177, -111204.889000000432134 ], [ -21500.253999999724329, -111204.608999999240041 ], [ -21524.317999999970198, -111204.359999999403954 ], [ -21533.433000000193715, -111204.359999999403954 ], [ -21545.188000000081956, -111202.571000000461936 ], [ -21602.206000000238419, -111201.596000000834465 ], [ -21607.025999999605119, -111201.342000000178814 ], [ -21617.316999999806285, -111201.691999999806285 ], [ -21660.916000000201166, -111201.402000000700355 ], [ -21664.071000000461936, -111202.857999999076128 ], [ -21696.753999999724329, -111202.85700000077486 ], [ -21715.252999999560416, -111203.35700000077486 ], [ -21740.658999999985099, -111203.35700000077486 ], [ -21760.54700000025332, -111203.356000000610948 ], [ -21764.406999999657273, -111203.851999999955297 ], [ -21810.629999999888241, -111204.634999999776483 ], [ -21817.38399999961257, -111203.855000000447035 ], [ -21879.43099999986589, -111203.854000000283122 ], [ -21879.423999999649823, -111196.17200000025332 ], [ -21879.854399999603629, -111171.72829999960959 ], [ -21878.65500000026077, -111039.475999999791384 ], [ -21880.78000000026077, -111033.475999999791384 ], [ -21881.28000000026077, -111004.208000000566244 ], [ -21852.684999999590218, -111004.348999999463558 ], [ -21840.74199999962002, -111004.201999999582767 ], [ -21839.899000000208616, -110984.333000000566244 ], [ -21838.917999999597669, -110897.730000000447035 ], [ -21839.901999999769032, -110883.707000000402331 ], [ -21840.156000000424683, -110818.230000000447035 ], [ -21840.410000000149012, -110767.03800000064075 ], [ -21840.15500000026077, -110762.70299999974668 ], [ -21840.064000000245869, -110634.673000000417233 ], [ -21806.92200000025332, -110634.219000000506639 ], [ -21806.92200000025332, -110602.316999999806285 ] ] ], [ [ [ -21814.803999999538064, -109588.583000000566244 ], [ -21880.407999999821186, -109586.848999999463558 ], [ -21882.923999999649823, -109586.775000000372529 ], [ -21883.044099999591708, -109552.952899999916553 ], [ -21883.529400000348687, -109399.438799999654293 ], [ -21882.809399999678135, -109392.588700000196695 ], [ -21885.362900000065565, -109310.872400000691414 ], [ -21886.960699999704957, -109265.868200000375509 ], [ -21887.760599999688566, -109258.26490000076592 ], [ -21888.663499999791384, -109229.267100000753999 ], [ -21756.552199999801815, -109228.234300000593066 ], [ -21756.548200000077486, -109226.841299999505281 ], [ -21685.301099999807775, -109226.239499999210238 ], [ -21619.47690000012517, -109225.682600000873208 ], [ -21612.99100000038743, -109225.588800000026822 ], [ -21550.265800000168383, -109224.576799999922514 ], [ -21543.471900000236928, -109224.467000000178814 ], [ -21447.25109999999404, -109224.154100000858307 ], [ -21447.253100000321865, -109222.895099999383092 ], [ -21404.255599999800324, -109222.89640000090003 ], [ -21342.54839999973774, -109222.050400000065565 ], [ -21313.82079999987036, -109221.723300000652671 ], [ -21306.86089999973774, -109221.806500000879169 ], [ -21272.979299999773502, -109222.237600000575185 ], [ -21240.571700000204146, -109222.649700000882149 ], [ -21242.13150000013411, -109301.022099999710917 ], [ -21209.059999999590218, -109301.948200000450015 ], [ -21128.86809999961406, -109304.192700000479817 ], [ -21127.815600000321865, -109428.808000000193715 ], [ -21128.074000000022352, -109468.86769999936223 ], [ -21127.017300000414252, -109574.119699999690056 ], [ -21235.13150000013411, -109568.3125 ], [ -21242.675999999977648, -109567.718000000342727 ], [ -21242.734000000171363, -109573.014000000432134 ], [ -21243.185999999754131, -109599.955000000074506 ], [ -21307.377999999560416, -109599.036000000312924 ], [ -21314.303000000305474, -109600.30599999986589 ], [ -21373.820000000298023, -109598.155999999493361 ], [ -21380.417999999597669, -109597.91499999910593 ], [ -21444.911000000312924, -109595.592000000178814 ], [ -21451.570000000298023, -109594.70299999974668 ], [ -21533.885999999940395, -109591.407999999821186 ], [ -21541.546000000089407, -109591.119000000879169 ], [ -21548.144000000320375, -109590.858999999240041 ], [ -21553.574000000022352, -109590.653999999165535 ], [ -21613.38399999961257, -109587.896999999880791 ], [ -21625.053000000305474, -109587.51799999922514 ], [ -21648.418999999761581, -109587.041999999433756 ], [ -21680.837000000290573, -109586.375 ], [ -21687.071000000461936, -109586.544999999925494 ], [ -21743.364000000059605, -109586.723999999463558 ], [ -21749.718000000342727, -109586.878000000491738 ], [ -21807.125, -109588.001000000163913 ], [ -21814.803999999538064, -109588.583000000566244 ] ] ], [ [ [ -21747.092000000178814, -109786.169999999925494 ], [ -21737.980000000447035, -109786.485999999567866 ], [ -21682.240000000223517, -109789.073999999091029 ], [ -21673.088000000454485, -109789.483999999240041 ], [ -21613.46999999973923, -109789.474999999627471 ], [ -21606.871000000275671, -109789.474999999627471 ], [ -21545.390999999828637, -109789.467000000178814 ], [ -21539.033999999985099, -109788.791999999433756 ], [ -21451.294999999925494, -109787.41300000064075 ], [ -21444.803999999538064, -109787.313999999314547 ], [ -21426.541000000201166, -109787.016000000759959 ], [ -21384.259999999776483, -109787.652000000700355 ], [ -21378.036999999545515, -109787.671000000089407 ], [ -21318.097000000067055, -109787.471999999135733 ], [ -21311.263000000268221, -109787.597999999299645 ], [ -21281.61600000038743, -109788.174000000581145 ], [ -21282.109299999661744, -109821.71000000089407 ], [ -21283.668999999761581, -109927.688999999314547 ], [ -21302.415000000037253, -109950.834000000730157 ], [ -21307.230000000447035, -110098.838999999687076 ], [ -21310.197499999776483, -110222.829900000244379 ], [ -21311.498700000345707, -110280.009199999272823 ], [ -21312.524000000208616, -110352.923000000417233 ], [ -21312.973000000230968, -110388.144999999552965 ], [ -21331.495000000111759, -110387.13399999961257 ], [ -21388.360000000335276, -110387.601999999955297 ], [ -21394.765999999828637, -110387.700999999418855 ], [ -21453.464999999850988, -110388.550000000745058 ], [ -21464.121000000275671, -110388.71199999935925 ], [ -21535.980999999679625, -110388.93099999986589 ], [ -21546.601999999955297, -110388.901000000536442 ], [ -21602.832000000402331, -110388.998999999836087 ], [ -21611.446000000461936, -110389.039000000804663 ], [ -21663.951000000350177, -110389.244999999180436 ], [ -21669.747999999672174, -110390.591000000014901 ], [ -21802.263000000268221, -110391.225999999791384 ], [ -21805.730999999679625, -110391.183000000193715 ], [ -21805.747000000439584, -110358.86600000038743 ], [ -21839.373999999836087, -110359.046000000089407 ], [ -21838.483000000007451, -110296.323999999091029 ], [ -21838.252999999560416, -110279.721000000834465 ], [ -21837.627000000327826, -110235.731000000610948 ], [ -21838.561999999918044, -110229.427999999374151 ], [ -21839.375, -110101.946000000461936 ], [ -21839.434999999590218, -110092.896999999880791 ], [ -21840.286999999545515, -109969.618000000715256 ], [ -21843.417000000365078, -109951.907999999821186 ], [ -21843.65500000026077, -109872.287000000476837 ], [ -21843.785000000149012, -109830.630999999120831 ], [ -21843.804999999701977, -109820.89299999922514 ], [ -21843.815000000409782, -109814.092000000178814 ], [ -21843.875, -109783.691999999806285 ], [ -21813.49199999962002, -109784.041999999433756 ], [ -21806.143000000156462, -109784.115000000223517 ], [ -21747.092000000178814, -109786.169999999925494 ] ] ] ] } },
{ "type": "Feature", "properties": { "id": 96.0, "地区名": "本願寺界わい" }, "geometry": { "type": "MultiPolygon", "coordinates": [ [ [ [ -22459.394500000402331, -111701.218699999153614 ], [ -22450.578099999576807, -111701.085899999365211 ], [ -22421.031200000084937, -111700.632799999788404 ], [ -22353.781200000084937, -111699.093699999153614 ], [ -22277.302699999883771, -111697.695299999788404 ], [ -22233.025399999693036, -111696.718699999153614 ], [ -22232.982400000095367, -111696.718699999153614 ], [ -22232.982400000095367, -111696.531199999153614 ], [ -22233.122999999672174, -111658.828099999576807 ], [ -22233.261699999682605, -111625.835899999365211 ], [ -22209.355499999597669, -111626.109400000423193 ], [ -22209.355499999597669, -111628.070299999788404 ], [ -22189.082000000402331, -111627.507799999788404 ], [ -22189.220700000412762, -111647.640599999576807 ], [ -22188.662100000306964, -111657.148399999365211 ], [ -22187.542999999597669, -111715.875 ], [ -22186.005900000222027, -111758.093699999153614 ], [ -22183.490199999883771, -111849.390599999576807 ], [ -22183.628899999894202, -111974.25 ], [ -22183.349600000306964, -112009.0625 ], [ -22183.490199999883771, -112075.921900000423193 ], [ -22153.929700000211596, -112076.382799999788404 ], [ -22153.988300000317395, -112072.531199999153614 ], [ -21917.355499999597669, -112074.351600000634789 ], [ -21914.140599999576807, -112063.164100000634789 ], [ -21889.673799999989569, -112017.585899999365211 ], [ -21874.154299999587238, -112017.304700000211596 ], [ -21874.433600000105798, -111977.882799999788404 ], [ -21874.433600000105798, -111922.515599999576807 ], [ -21874.013700000010431, -111915.804700000211596 ], [ -21874.292999999597669, -111876.515599999576807 ], [ -21874.853500000201166, -111871.343699999153614 ], [ -21874.625, -111770.4375 ], [ -21874.548799999989569, -111764.734400000423193 ], [ -21874.703099999576807, -111755.875 ], [ -21895.966799999587238, -111755.875 ], [ -21897.044900000095367, -111754.953099999576807 ], [ -21910.681599999777973, -111705.5625 ], [ -21914.611299999989569, -111694.007799999788404 ], [ -21915.689500000327826, -111689.617200000211596 ], [ -21916.382799999788404, -111685.304700000211596 ], [ -21916.953099999576807, -111667.203099999576807 ], [ -21917.076200000010431, -111658.414100000634789 ], [ -21917.154299999587238, -111654.945299999788404 ], [ -21918.386699999682605, -111654.945299999788404 ], [ -21918.503899999894202, -111634.867200000211596 ], [ -21855.9375, -111634.640599999576807 ], [ -21813.986299999989569, -111634.492200000211596 ], [ -21808.732400000095367, -111635.804700000211596 ], [ -21743.337899999693036, -111635.898399999365211 ], [ -21738.552699999883771, -111635.429700000211596 ], [ -21675.037100000306964, -111635.054700000211596 ], [ -21670.158200000412762, -111634.773399999365211 ], [ -21649.986299999989569, -111635.054700000211596 ], [ -21650.361299999989569, -111655.320299999788404 ], [ -21675.130900000222027, -111654.851600000634789 ], [ -21675.130900000222027, -111763.125 ], [ -21705.152300000190735, -111763.125 ], [ -21704.970700000412762, -111773.304700000211596 ], [ -21704.970700000412762, -111796.898399999365211 ], [ -21704.970700000412762, -111840.273399999365211 ], [ -21733.355499999597669, -111839.828099999576807 ], [ -21733.355499999597669, -111905.914100000634789 ], [ -21705.414099999703467, -111905.914100000634789 ], [ -21705.414099999703467, -111935.234400000423193 ], [ -21720.351599999703467, -111935.0 ], [ -21720.378899999894202, -111940.726600000634789 ], [ -21720.539099999703467, -111973.093699999153614 ], [ -21743.519500000402331, -111972.906199999153614 ], [ -21743.433600000105798, -112002.9375 ], [ -21743.431599999777973, -112003.117200000211596 ], [ -21776.550800000317395, -112002.890599999576807 ], [ -21780.675800000317395, -112002.859400000423193 ], [ -21820.667999999597669, -112002.585899999365211 ], [ -21853.015599999576807, -112002.367200000211596 ], [ -21853.013700000010431, -112002.710899999365211 ], [ -21852.724600000306964, -112070.734400000423193 ], [ -21852.453099999576807, -112134.843699999153614 ], [ -22199.287100000306964, -112135.429700000211596 ], [ -22213.128899999894202, -112135.406199999153614 ], [ -22223.111299999989569, -112135.125 ], [ -22232.263700000010431, -112135.132799999788404 ], [ -22340.990199999883771, -112132.007799999788404 ], [ -22347.533200000412762, -112131.820299999788404 ], [ -22348.328099999576807, -112131.8125 ], [ -22407.189500000327826, -112132.960899999365211 ], [ -22450.818400000222027, -112133.8125 ], [ -22470.666000000201166, -112134.195299999788404 ], [ -22524.070299999788404, -112136.140599999576807 ], [ -22523.933600000105798, -112124.265599999576807 ], [ -22520.158200000412762, -112120.351600000634789 ], [ -22521.308600000105798, -112064.015599999576807 ], [ -22522.955099999904633, -111983.476600000634789 ], [ -22524.912100000306964, -111855.960899999365211 ], [ -22525.050800000317395, -111850.234400000423193 ], [ -22526.589800000190735, -111727.054700000211596 ], [ -22527.148400000296533, -111722.585899999365211 ], [ -22527.289099999703467, -111701.75 ], [ -22521.552699999883771, -111701.710899999365211 ], [ -22520.091799999587238, -111701.703099999576807 ], [ -22484.226599999703467, -111701.468699999153614 ], [ -22463.255900000222027, -111701.273399999365211 ], [ -22459.394500000402331, -111701.218699999153614 ] ] ] ] } },
{ "type": "Feature", "properties": { "id": 1.0, "地区名": "二条通" }, "geometry": { "type": "MultiPolygon", "coordinates": [ [ [ [ -22637.993200000375509, -109398.942900000140071 ], [ -22637.809100000187755, -109369.763299999758601 ], [ -22604.089800000190735, -109370.49379999935627 ], [ -22604.219800000078976, -109364.98369999974966 ], [ -22574.064600000157952, -109365.588700000196695 ], [ -22568.170400000177324, -109365.736099999397993 ], [ -22547.041000000201166, -109366.264499999582767 ], [ -22546.921099999919534, -109377.544800000265241 ], [ -22538.281299999915063, -109377.854900000616908 ], [ -22538.161299999803305, -109387.415100000798702 ], [ -22530.07149999961257, -109387.785199999809265 ], [ -22530.311499999836087, -109389.135299999266863 ], [ -22517.691800000146031, -109389.505400000140071 ], [ -22517.667399999685585, -109390.283099999651313 ], [ -22508.463000000454485, -109390.623999999836087 ], [ -22501.463000000454485, -109385.524000000208616 ], [ -22497.063000000081956, -109385.723999999463558 ], [ -22492.862999999895692, -109385.724999999627471 ], [ -22488.463000000454485, -109385.823999999091029 ], [ -22482.044400000013411, -109385.806600000709295 ], [ -22481.722400000318885, -109376.365599999204278 ], [ -22463.436300000175834, -109376.635500000789762 ], [ -22458.233500000089407, -109376.635500000789762 ], [ -22451.323099999688566, -109376.735999999567866 ], [ -22451.073099999688566, -109380.906099999323487 ], [ -22429.873499999754131, -109381.516400000080466 ], [ -22429.99349999986589, -109379.426400000229478 ], [ -22414.303899999707937, -109379.916600000113249 ], [ -22414.05379999987781, -109375.25650000013411 ], [ -22402.224100000225008, -109375.566700000315905 ], [ -22401.984000000171363, -109369.316500000655651 ], [ -22391.554299999959767, -109369.186699999496341 ], [ -22390.414300000295043, -109369.116699999198318 ], [ -22390.524299999698997, -109372.546800000593066 ], [ -22382.434500000439584, -109373.166899999603629 ], [ -22382.434600000269711, -109389.357300000265241 ], [ -22374.262799999676645, -109389.8114 ], [ -22373.966000000014901, -109380.926000000908971 ], [ -22373.964999999850988, -109375.225999999791384 ], [ -22368.065000000409782, -109375.224999999627471 ], [ -22368.065999999642372, -109390.225999999791384 ], [ -22362.466000000014901, -109390.526000000536442 ], [ -22355.166000000201166, -109385.725999999791384 ], [ -22347.906000000424683, -109385.825999999418855 ], [ -22341.74100000038743, -109385.913599999621511 ], [ -22341.735399999655783, -109385.547700000926852 ], [ -22339.035500000230968, -109385.427799999713898 ], [ -22339.215400000102818, -109378.127599999308586 ], [ -22332.355499999597669, -109378.127699999138713 ], [ -22332.235500000417233, -109372.487500000745058 ], [ -22323.645700000226498, -109372.857699999585748 ], [ -22323.285699999891222, -109367.947599999606609 ], [ -22310.375900000333786, -109368.377699999138713 ], [ -22310.506000000052154, -109380.898000000044703 ], [ -22307.257100000046194, -109380.851399999111891 ], [ -22301.169300000183284, -109380.764000000432134 ], [ -22284.746600000187755, -109380.528400000184774 ], [ -22284.866499999538064, -109369.728099999949336 ], [ -22260.646999999880791, -109369.588400000706315 ], [ -22257.057099999859929, -109369.42850000038743 ], [ -22257.307099999859929, -109372.47859999909997 ], [ -22257.307199999690056, -109388.619000000879169 ], [ -22251.937300000339746, -109388.809000000357628 ], [ -22251.937300000339746, -109385.598999999463558 ], [ -22246.36739999987185, -109385.498999999836087 ], [ -22246.267400000244379, -109391.639200000092387 ], [ -22241.457499999552965, -109391.639299999922514 ], [ -22241.547600000165403, -109399.379499999806285 ], [ -22240.209499999880791, -109399.379499999806285 ], [ -22240.268000000156462, -109396.628000000491738 ], [ -22236.167999999597669, -109396.427999999374151 ], [ -22236.168999999761581, -109389.528000000864267 ], [ -22231.368999999947846, -109389.528000000864267 ], [ -22221.769000000320375, -109389.028000000864267 ], [ -22214.815000000409782, -109384.703500000759959 ], [ -22211.56900000013411, -109384.528000000864267 ], [ -22205.668999999761581, -109384.628000000491738 ], [ -22205.112599999643862, -109392.139699999243021 ], [ -22201.758399999700487, -109392.139799999073148 ], [ -22201.558299999684095, -109380.639499999582767 ], [ -22183.338700000196695, -109380.409800000488758 ], [ -22183.408599999733269, -109373.519600000232458 ], [ -22174.378800000064075, -109373.559699999168515 ], [ -22174.378800000064075, -109376.449799999594688 ], [ -22169.838899999856949, -109376.449799999594688 ], [ -22169.838899999856949, -109378.749900000169873 ], [ -22151.789300000295043, -109378.620200000703335 ], [ -22151.78940000012517, -109384.790300000458956 ], [ -22142.789499999955297, -109384.790400000289083 ], [ -22142.85950000025332, -109373.760099999606609 ], [ -22116.629999999888241, -109373.730499999597669 ], [ -22116.620099999941885, -109386.460799999535084 ], [ -22095.42200000025332, -109386.339700000360608 ], [ -22095.470999999903142, -109384.429999999701977 ], [ -22095.171000000089407, -109375.729000000283122 ], [ -22083.571999999694526, -109375.529999999329448 ], [ -22076.962299999780953, -109380.629799999296665 ], [ -22071.271999999880791, -109380.488700000569224 ], [ -22071.372000000439584, -109368.839999999850988 ], [ -22056.472000000067055, -109368.330000000074506 ], [ -22055.972000000067055, -109380.730000000447035 ], [ -22054.67200000025332, -109380.830000000074506 ], [ -22054.28830000013113, -109389.121799999848008 ], [ -22052.641400000080466, -109389.121799999848008 ], [ -22052.321399999782443, -109379.991499999538064 ], [ -22042.211600000038743, -109379.931700000539422 ], [ -22042.491600000299513, -109371.951500000432134 ], [ -22043.681499999947846, -109372.011399999260902 ], [ -22043.621500000357628, -109361.241200000047684 ], [ -22035.851700000464916, -109361.151300000026822 ], [ -22035.851700000464916, -109368.181399999186397 ], [ -22026.791899999603629, -109368.041600000113249 ], [ -22026.661899999715388, -109373.231699999421835 ], [ -22021.473000000230968, -109373.230000000447035 ], [ -22014.942099999636412, -109373.130999999120831 ], [ -22010.702200000174344, -109373.10190000012517 ], [ -22010.642199999652803, -109368.831800000742078 ], [ -21995.772499999962747, -109368.541999999433756 ], [ -21995.572499999776483, -109364.921900000423193 ], [ -21981.912800000049174, -109364.402100000530481 ], [ -21981.173999999649823, -109367.331000000238419 ], [ -21974.692999999970198, -109367.222300000488758 ], [ -21974.692999999970198, -109379.372600000351667 ], [ -21978.032899999991059, -109379.502499999478459 ], [ -21977.933000000193715, -109388.532800000160933 ], [ -21960.473399999551475, -109388.532999999821186 ], [ -21960.473399999551475, -109388.532999999821186 ], [ -21960.451000000350177, -109387.769500000402331 ], [ -21958.373999999836087, -109387.73200000077486 ], [ -21958.373999999836087, -109388.310399999842048 ], [ -21952.673999999649823, -109388.131999999284744 ], [ -21952.574900000356138, -109393.484200000762939 ], [ -21949.974999999627471, -109400.432000000029802 ], [ -21949.774000000208616, -109428.532999999821186 ], [ -22009.152499999850988, -109428.303400000557303 ], [ -22009.052500000223517, -109417.893100000917912 ], [ -22044.671699999831617, -109417.932600000873208 ], [ -22044.671699999831617, -109415.502599999308586 ], [ -22047.821700000204146, -109415.432499999180436 ], [ -22047.891699999570847, -109413.262499999254942 ], [ -22053.341500000096858, -109413.20240000076592 ], [ -22053.931499999947846, -109408.862299999222159 ], [ -22063.421299999579787, -109408.962200000882149 ], [ -22063.373399999924004, -109406.684000000357628 ], [ -22073.872000000439584, -109406.831000000238419 ], [ -22080.67200000025332, -109411.929999999701977 ], [ -22092.17200000025332, -109411.530999999493361 ], [ -22094.970999999903142, -109411.529999999329448 ], [ -22094.956199999898672, -109410.767300000414252 ], [ -22099.500599999912083, -109410.901699999347329 ], [ -22099.820600000210106, -109418.981899999082088 ], [ -22105.730499999597669, -109418.911800000816584 ], [ -22105.700600000098348, -109431.492200000211596 ], [ -22121.330199999734759, -109431.551899999380112 ], [ -22178.909099999815226, -109431.621099999174476 ], [ -22178.969100000336766, -109435.301200000569224 ], [ -22191.478799999691546, -109435.271099999547005 ], [ -22191.548799999989569, -109431.921000000089407 ], [ -22198.50870000012219, -109431.850899999961257 ], [ -22198.508600000292063, -109425.2807 ], [ -22203.062599999830127, -109425.253100000321865 ], [ -22202.968999999575317, -109432.928999999538064 ], [ -22212.56900000013411, -109433.028999999165535 ], [ -22219.066300000064075, -109418.932299999520183 ], [ -22227.146200000308454, -109419.027599999681115 ], [ -22227.157999999821186, -109423.410299999639392 ], [ -22241.127700000070035, -109423.130100000649691 ], [ -22241.027800000272691, -109427.370200000703335 ], [ -22250.377600000239909, -109427.470000000670552 ], [ -22250.22759999986738, -109432.580199999734759 ], [ -22260.64740000013262, -109432.330000000074506 ], [ -22269.787200000137091, -109432.909900000318885 ], [ -22290.450500000268221, -109432.78999999910593 ], [ -22290.886800000444055, -109437.689699999988079 ], [ -22312.956299999728799, -109437.569399999454618 ], [ -22313.196399999782443, -109445.539599999785423 ], [ -22333.065999999642372, -109445.419299999251962 ], [ -22332.815899999812245, -109428.978900000452995 ], [ -22349.525500000454485, -109428.908700000494719 ], [ -22349.765599999576807, -109436.878900000825524 ], [ -22367.665199999697506, -109436.628599999472499 ], [ -22367.785299999639392, -109442.148800000548363 ], [ -22380.665000000037253, -109442.278599999845028 ], [ -22380.90500000026077, -109445.098699999973178 ], [ -22385.194899999536574, -109445.588600000366569 ], [ -22385.625, -109451.168800000101328 ], [ -22391.024799999780953, -109450.918700000271201 ], [ -22391.264700000174344, -109436.818299999460578 ], [ -22394.964999999850988, -109436.826999999582767 ], [ -22422.034099999815226, -109436.327899999916553 ], [ -22422.164099999703467, -109430.557700000703335 ], [ -22441.713700000196695, -109430.127499999478459 ], [ -22441.953700000420213, -109434.667600000277162 ], [ -22460.473299999721348, -109434.177300000563264 ], [ -22460.473299999721348, -109439.57740000076592 ], [ -22474.203099999576807, -109439.327199999243021 ], [ -22474.072900000028312, -109425.106899999082088 ], [ -22485.362700000405312, -109424.246700000017881 ], [ -22485.232699999585748, -109416.516499999910593 ], [ -22503.812300000339746, -109415.716299999505281 ], [ -22503.002199999988079, -109401.525900000706315 ], [ -22517.321899999864399, -109401.275699999183416 ], [ -22522.221800000406802, -109401.035599999129772 ], [ -22637.993200000375509, -109398.942900000140071 ] ] ] ] } },
{ "type": "Feature", "properties": { "id": 874.0, "地区名": "下木屋町" }, "geometry": { "type": "MultiPolygon", "coordinates": [ [ [ [ -20907.142099999822676, -110516.641699999570847 ], [ -20909.676699999719858, -110526.526499999687076 ], [ -20895.206399999558926, -110531.288699999451637 ], [ -20909.96100000012666, -110576.924900000914931 ], [ -20928.925099999643862, -110635.580900000408292 ], [ -20937.857099999673665, -110653.550899999216199 ], [ -20942.56180000025779, -110663.293199999257922 ], [ -20959.059500000439584, -110696.556199999526143 ], [ -20973.238499999977648, -110724.77449999935925 ], [ -20987.809100000187755, -110746.288899999111891 ], [ -20993.185399999842048, -110757.990299999713898 ], [ -21020.020600000396371, -110822.42879999987781 ], [ -21066.291299999691546, -110938.489099999889731 ], [ -21084.229299999773502, -110981.5168999992311 ], [ -21106.561900000087917, -111039.296800000593066 ], [ -21132.020200000144541, -111115.829900000244379 ], [ -21192.89879999961704, -111301.470100000500679 ], [ -21207.884399999864399, -111353.687999999150634 ], [ -21224.939100000075996, -111350.033399999141693 ], [ -21217.092100000008941, -111307.953299999237061 ], [ -21195.903199999593198, -111181.926699999719858 ], [ -21218.941100000403821, -111177.868699999526143 ], [ -21215.189600000157952, -111150.14809999987483 ], [ -21214.529600000008941, -111149.268799999728799 ], [ -21213.378200000151992, -111134.746899999678135 ], [ -21208.254800000227988, -111105.339800000190735 ], [ -21204.120900000445545, -111092.675599999725819 ], [ -21202.25870000012219, -111087.888900000602007 ], [ -21185.541100000031292, -111052.212700000032783 ], [ -21184.942999999970198, -111050.620699999853969 ], [ -21184.303399999625981, -111048.071000000461936 ], [ -21183.184500000439584, -111041.637700000777841 ], [ -21173.162899999879301, -111024.158999999985099 ], [ -21132.253100000321865, -110924.232699999585748 ], [ -21084.60869999974966, -110807.892599999904633 ], [ -21078.823599999770522, -110795.964800000190735 ], [ -21062.60120000038296, -110757.801400000229478 ], [ -21052.691200000233948, -110734.488099999725819 ], [ -21047.73410000000149, -110724.833200000226498 ], [ -21035.740399999544024, -110706.715099999681115 ], [ -21025.979600000195205, -110693.66499999910593 ], [ -21015.304100000299513, -110678.761399999260902 ], [ -21009.230800000019372, -110675.473099999129772 ], [ -21003.897199999541044, -110668.496799999848008 ], [ -21001.459499999880791, -110661.077299999073148 ], [ -20998.464200000278652, -110651.960799999535084 ], [ -20995.061900000087917, -110638.605299999937415 ], [ -20974.029400000348687, -110642.100099999457598 ], [ -20970.012000000104308, -110643.006699999794364 ], [ -20967.178299999795854, -110638.10359999909997 ], [ -20963.293700000271201, -110628.872700000181794 ], [ -20962.615000000223517, -110626.011199999600649 ], [ -20964.4222999997437, -110625.524000000208616 ], [ -20980.416500000283122, -110622.178999999538064 ], [ -20977.267199999652803, -110615.309200000017881 ], [ -20972.699300000444055, -110578.482999999076128 ], [ -20981.855100000277162, -110577.357799999415874 ], [ -20976.207499999552965, -110556.042999999597669 ], [ -20974.70990000013262, -110550.906999999657273 ], [ -20969.912499999627471, -110534.453700000420213 ], [ -20968.299399999901652, -110526.787100000306964 ], [ -20967.332899999804795, -110519.700400000438094 ], [ -20944.401100000366569, -110524.57010000012815 ], [ -20915.947599999606609, -110523.592399999499321 ], [ -20915.274000000208616, -110522.870200000703335 ], [ -20911.990399999544024, -110515.20240000076592 ], [ -20907.142099999822676, -110516.641699999570847 ] ] ] ] } },
{ "type": "Feature", "properties": { "id": 1.0, "地区名": "古門前通元町" }, "geometry": { "type": "MultiPolygon", "coordinates": [ [ [ [ -20740.718299999833107, -110086.904799999669194 ], [ -20693.445199999958277, -110089.644600000232458 ], [ -20694.266800000332296, -110093.304300000891089 ], [ -20595.975700000301003, -110099.470200000330806 ], [ -20595.975700000301003, -110096.08500000089407 ], [ -20594.52489999961108, -110086.896600000560284 ], [ -20564.678000000305474, -110088.603399999439716 ], [ -20564.904500000178814, -110085.20409999974072 ], [ -20547.148699999786913, -110086.414499999955297 ], [ -20547.260999999940395, -110103.818299999460578 ], [ -20559.464100000448525, -110103.218100000172853 ], [ -20559.464100000448525, -110101.888199999928474 ], [ -20576.148199999704957, -110100.921000000089407 ], [ -20580.500500000081956, -110135.014599999412894 ], [ -20585.82010000012815, -110134.530999999493361 ], [ -20589.928000000305474, -110171.650000000372529 ], [ -20736.817699999548495, -110156.934100000187755 ], [ -20739.604000000283122, -110117.121500000357628 ], [ -20740.718299999833107, -110086.904799999669194 ] ] ] ] } }
]
}
